[{"OBJECT_NAME":"COSMOS 2494 (SKRL-756 2)","OBJECT_ID":"2013-078B","EPOCH":"2026-03-09T22:07:38.657280","MEAN_MOTION":15.04216116,"ECCENTRICITY":0.00160459,"INCLINATION":82.4161,"RA_OF_ASC_NODE":348.0656,"ARG_OF_PERICENTER":176.5861,"MEAN_ANOMALY":183.5478,"EPHEMERIS_TYPE":0,"CLASSIFICATION_TYPE":"U","NORAD_CAT_ID":39491,"ELEMENT_SET_NO":999,"REV_AT_EPOCH":66388,"BSTAR":0.0003906904,"MEAN_MOTION_DOT":5.469e-5,"MEAN_MOTION_DDOT":0},{"OBJECT_NAME":"STARLINK-34904","OBJECT_ID":"2025-184B","EPOCH":"2026-03-09T17:20:54.889728","MEAN_MOTION":15.05634337,"ECCENTRICITY":0.00013054,"INCLINATION":97.602,"RA_OF_ASC_NODE":122.6597,"ARG_OF_PERICENTER":115.1435,"MEAN_ANOMALY":244.9928,"EPHEMERIS_TYPE":0,"CLASSIFICATION_TYPE":"U","NORAD_CAT_ID":65274,"ELEMENT_SET_NO":999,"REV_AT_EPOCH":3130,"BSTAR":0.0003313828,"MEAN_MOTION_DOT":4.722e-5,"MEAN_MOTION_DDOT":0}]
